[{"OBJECT_NAME":"STARLINK-2612","OBJECT_ID":"2021-038AC","EPOCH":"2026-03-09T22:16:21.352224","MEAN_MOTION":15.30185006,"ECCENTRICITY":0.00012211,"INCLINATION":53.1599,"RA_OF_ASC_NODE":344.6377,"ARG_OF_PERICENTER":62.2807,"MEAN_ANOMALY":297.8318,"EPHEMERIS_TYPE":0,"CLASSIFICATION_TYPE":"U","NORAD_CAT_ID":48379,"ELEMENT_SET_NO":999,"REV_AT_EPOCH":26729,"BSTAR":-8.6692671e-5,"MEAN_MOTION_DOT":-2.924e-5,"MEAN_MOTION_DDOT":0},{"OBJECT_NAME":"NEXSAT-1","OBJECT_ID":"2024-024E","EPOCH":"2026-03-09T22:47:24.778176","MEAN_MOTION":15.32166372,"ECCENTRICITY":0.00099795,"INCLINATION":97.3124,"RA_OF_ASC_NODE":144.1918,"ARG_OF_PERICENTER":108.5709,"MEAN_ANOMALY":251.6617,"EPHEMERIS_TYPE":0,"CLASSIFICATION_TYPE":"U","NORAD_CAT_ID":58921,"ELEMENT_SET_NO":999,"REV_AT_EPOCH":11669,"BSTAR":0.00031433612,"MEAN_MOTION_DOT":9.702e-5,"MEAN_MOTION_DDOT":0}]
